[{"OBJECT_NAME":"NUSAT-39 (TIKVAH ALPER)","OBJECT_ID":"2023-054Z","EPOCH":"2026-03-09T21:28:29.697024","MEAN_MOTION":15.41540471,"ECCENTRICITY":0.0007232,"INCLINATION":97.3191,"RA_OF_ASC_NODE":338.0552,"ARG_OF_PERICENTER":52.8862,"MEAN_ANOMALY":307.3045,"EPHEMERIS_TYPE":0,"CLASSIFICATION_TYPE":"U","NORAD_CAT_ID":56201,"ELEMENT_SET_NO":999,"REV_AT_EPOCH":16313,"BSTAR":0.00071343527,"MEAN_MOTION_DOT":0.00029967,"MEAN_MOTION_DDOT":0},{"OBJECT_NAME":"JACKAL X-1L-002","OBJECT_ID":"2024-043AN","EPOCH":"2026-03-09T23:11:34.268640","MEAN_MOTION":15.42550186,"ECCENTRICITY":0.00077419,"INCLINATION":97.5416,"RA_OF_ASC_NODE":211.0971,"ARG_OF_PERICENTER":201.4891,"MEAN_ANOMALY":158.6032,"EPHEMERIS_TYPE":0,"CLASSIFICATION_TYPE":"U","NORAD_CAT_ID":59134,"ELEMENT_SET_NO":999,"REV_AT_EPOCH":11230,"BSTAR":0.00054451815,"MEAN_MOTION_DOT":0.00023615,"MEAN_MOTION_DDOT":0}]
